NORAD_CAT_ID,OBJECT_NAME,OBJECT_TYPE,EPOCH,MEAN_MOTION,ECCENTRICITY,INCLINATION,RA_OF_ASC_NODE,ARG_OF_PERICENTER,MEAN_ANOMALY,BSTAR,MEAN_MOTION_DOT,MEAN_MOTION_DDOT,TLE_LINE0,TLE_LINE1,TLE_LINE2,SEMIMAJOR_AXIS,PERIOD,APOGEE,PERIGEE,DECAYED
51769.0,STARLINK-3621,PAYLOAD,2024-06-01 20:08:11,15.08841604,0.0001855,53.2193,358.4578,86.2098,273.9107,6.3564e-05,7.24e-06,0.0,0 STARLINK-3621,1 51769U 22017B   24153.83902642  .00000724  00000-0  63564-4 0  9990,2 51769  53.2193 358.4578 0001855  86.2098 273.9107 15.08841604126550,6917.875,95.437,541.024,538.457,0.0
51769.0,STARLINK-3621,PAYLOAD,2024-06-02 23:09:45,15.088352,0.000172,53.2225,353.3995,110.7368,249.3809,8.3778e-05,1.045e-05,0.0,0 STARLINK-3621,1 51769U 22017B   24154.96510944  .00001045  00000-0  83778-4 0  9991,2 51769  53.2225 353.3995 0001720 110.7368 249.3809 15.08835200126727,6917.895,95.438,540.95,538.57,0.0
51769.0,STARLINK-3621,PAYLOAD,2024-06-03 19:49:46,15.08834127,0.0001361,53.2191,349.5368,85.0254,275.0893,7.6683e-05,9.33e-06,0.0,0 STARLINK-3621,1 51769U 22017B   24155.82623356  .00000933  00000-0  76683-4 0  9991,2 51769  53.2191 349.5368 0001361  85.0254 275.0893 15.08834127125409,6917.898,95.438,540.705,538.822,0.0
51769.0,STARLINK-3621,PAYLOAD,2024-06-04 19:40:33,15.08838332,0.0001525,53.2204,345.0773,87.4071,272.7095,1.2396e-05,-9.1e-07,0.0,0 STARLINK-3621,1 51769U 22017B   24156.81983400 -.00000091  00000-0  12396-4 0  9997,2 51769  53.2204 345.0773 0001525  87.4071 272.7095 15.08838332127008,6917.885,95.438,540.805,538.696,0.0
51769.0,STARLINK-3621,PAYLOAD,2024-06-05 13:09:48,15.0883861,0.0002098,53.219,341.8044,91.3989,268.7244,1.6923e-05,-1.9e-07,0.0,0 STARLINK-3621,1 51769U 22017B   24157.54847538 -.00000019  00000-0  16923-4 0  9999,2 51769  53.2190 341.8044 0002098  91.3989 268.7244 15.08838610125665,6917.885,95.438,541.201,538.298,0.0
51769.0,STARLINK-3621,PAYLOAD,2024-06-05 21:06:44,15.08834305,0.0001624,53.2218,340.3187,90.4974,269.6204,5.4214e-05,5.75e-06,0.0,0 STARLINK-3621,1 51769U 22017B   24157.87968061  .00000575  00000-0  54214-4 0  9991,2 51769  53.2218 340.3187 0001624  90.4974 269.6204 15.08834305127166,6917.898,95.438,540.886,538.639,0.0
51769.0,STARLINK-3621,PAYLOAD,2024-06-06 05:03:39,15.08844819,0.0001534,53.2231,338.8321,87.1576,272.9591,0.00013386,1.843e-05,0.0,0 STARLINK-3621,1 51769U 22017B   24158.21087212  .00001843  00000-0  13386-3 0  9993,2 51769  53.2231 338.8321 0001534  87.1576 272.9591 15.08844819127217,6917.866,95.437,540.792,538.669,0.0
51769.0,STARLINK-3621,PAYLOAD,2024-06-07 20:48:18,15.08835075,0.0001419,53.2213,331.399,80.8184,279.2969,5.6874e-05,6.17e-06,0.0,0 STARLINK-3621,1 51769U 22017B   24159.86688450  .00000617  00000-0  56874-4 0  9994,2 51769  53.2213 331.3990 0001419  80.8184 279.2969 15.08835075127464,6917.895,95.438,540.742,538.779,0.0
51769.0,STARLINK-3621,PAYLOAD,2024-06-08 04:45:13,15.08839208,0.0001501,53.222,329.9115,84.5408,275.5756,0.00024894,3.676e-05,0.0,0 STARLINK-3621,1 51769U 22017B   24160.19807717  .00003676  00000-0  24894-3 0  9995,2 51769  53.2220 329.9115 0001501  84.5408 275.5756 15.08839208127517,6917.883,95.438,540.786,538.709,0.0
51769.0,STARLINK-3621,PAYLOAD,2024-06-08 11:06:46,15.08847317,0.0002399,53.211,328.7197,86.5671,273.5595,0.00011618,1.562e-05,0.0,0 STARLINK-3621,1 51769U 22017B   24160.46303614  .00001562  00000-0  11618-3 0  9994,2 51769  53.2110 328.7197 0002399  86.5671 273.5595 15.08847317126105,6917.858,95.437,541.383,538.063,0.0
51769.0,STARLINK-3621,PAYLOAD,2024-06-08 19:03:42,15.08847089,0.0001347,53.215,327.2342,93.9553,266.1593,-2.1448e-05,-6.29e-06,0.0,0 STARLINK-3621,1 51769U 22017B   24160.79424325 -.00000629  00000-0 -21448-4 0  9991,2 51769  53.2150 327.2342 0001347  93.9553 266.1593 15.08847089126155,6917.859,95.437,540.656,538.792,0.0
51769.0,STARLINK-3621,PAYLOAD,2024-06-09 04:36:00,15.08853399,0.000146,53.2192,325.4471,110.7329,249.382,8.0984e-05,1.002e-05,0.0,0 STARLINK-3621,1 51769U 22017B   24161.19167193  .00001002  00000-0  80984-4 0  9997,2 51769  53.2192 325.4471 0001460 110.7329 249.3820 15.08853399126213,6917.839,95.437,540.714,538.694,0.0
51769.0,STARLINK-3621,PAYLOAD,2024-06-09 20:29:53,15.08835418,0.0001413,53.2168,322.4747,108.6649,251.4496,-7.447e-05,-1.473e-05,0.0,0 STARLINK-3621,1 51769U 22017B   24161.85408766 -.00001473  00000-0 -74470-4 0  9991,2 51769  53.2168 322.4747 0001413 108.6649 251.4496 15.08835418127764,6917.894,95.438,540.737,538.782,0.0
51769.0,STARLINK-3621,PAYLOAD,2024-06-10 13:59:07,15.08835823,0.0001461,53.2164,319.2045,111.4838,248.631,0.00011457,1.536e-05,0.0,0 STARLINK-3621,1 51769U 22017B   24162.58272274  .00001536  00000-0  11457-3 0  9998,2 51769  53.2164 319.2045 0001461 111.4838 248.6310 15.08835823126425,6917.893,95.438,540.769,538.747,0.0
51769.0,STARLINK-3621,PAYLOAD,2024-06-10 17:09:53,15.08835071,0.0001147,53.2186,318.6121,95.9498,264.1625,0.00013558,1.87e-05,0.0,0 STARLINK-3621,1 51769U 22017B   24162.71520427  .00001870  00000-0  13558-3 0  9994,2 51769  53.2186 318.6121 0001147  95.9498 264.1625 15.08835071127895,6917.895,95.438,540.554,538.967,0.0
51769.0,STARLINK-3621,PAYLOAD,2024-06-11 13:49:54,15.08836846,0.0001236,53.2188,314.7465,96.8486,263.2646,0.00018891,2.72e-05,0.0,0 STARLINK-3621,1 51769U 22017B   24163.57632248  .00002720  00000-0  18891-3 0  9994,2 51769  53.2188 314.7465 0001236  96.8486 263.2646 15.08836846126579,6917.89,95.438,540.61,538.9,0.0
51769.0,STARLINK-3621,PAYLOAD,2024-06-11 17:00:40,15.08840207,0.0001212,53.2188,314.1533,94.4188,265.6942,0.00022363,3.273e-05,0.0,0 STARLINK-3621,1 51769U 22017B   24163.70880152  .00003273  00000-0  22363-3 0  9991,2 51769  53.2188 314.1533 0001212  94.4188 265.6942 15.08840207126599,6917.88,95.438,540.583,538.906,0.0
51769.0,STARLINK-3621,PAYLOAD,2024-06-12 13:40:41,15.08836629,6.91e-05,53.2185,310.2852,114.0446,246.0618,3.3175e-05,2.4e-06,0.0,0 STARLINK-3621,1 51769U 22017B   24164.56992779  .00000240  00000-0  33175-4 0  9990,2 51769  53.2185 310.2852 0000691 114.0446 246.0618 15.08836629128175,6917.891,95.438,540.234,539.278,0.0
51769.0,STARLINK-3621,PAYLOAD,2024-06-12 16:51:28,15.08829539,0.000109,53.2189,309.6934,100.5291,259.5824,-3.2899e-05,-8.11e-06,0.0,0 STARLINK-3621,1 51769U 22017B   24164.70241506 -.00000811  00000-0 -32899-4 0  9999,2 51769  53.2189 309.6934 0001090 100.5291 259.5824 15.08829539128196,6917.912,95.438,540.531,539.023,0.0
51769.0,STARLINK-3621,PAYLOAD,2024-06-13 13:31:28,15.08838554,9.99e-05,53.2183,305.8234,85.1212,274.9894,4.1367e-05,3.71e-06,0.0,0 STARLINK-3621,1 51769U 22017B   24165.56352964  .00000371  00000-0  41367-4 0  9994,2 51769  53.2183 305.8234 0000999  85.1212 274.9894 15.08838554128329,6917.885,95.438,540.441,539.059,0.0
51769.0,STARLINK-3621,PAYLOAD,2024-06-13 15:06:51,15.08840044,0.0001018,53.2181,305.5261,86.0061,274.1047,5.9571e-05,6.6e-06,0.0,0 STARLINK-3621,1 51769U 22017B   24165.62976825  .00000660  00000-0  59571-4 0  9996,2 51769  53.2181 305.5261 0001018  86.0061 274.1047 15.08840044126887,6917.88,95.438,540.449,539.041,0.0
51769.0,STARLINK-3621,PAYLOAD,2024-06-13 16:42:14,15.08843206,0.0001013,53.2182,305.23,83.3713,276.7394,5.9196e-05,6.55e-06,0.0,0 STARLINK-3621,1 51769U 22017B   24165.69600609  .00000655  00000-0  59196-4 0  9994,2 51769  53.2182 305.2300 0001013  83.3713 276.7394 15.08843206126895,6917.871,95.437,540.436,539.035,0.0
51769.0,STARLINK-3621,PAYLOAD,2024-06-14 13:22:16,15.08829756,0.0001015,53.2181,301.364,79.3832,280.7274,0.00013592,1.875e-05,0.0,0 STARLINK-3621,1 51769U 22017B   24166.55713468  .00001875  00000-0  13592-3 0  9992,2 51769  53.2181 301.3640 0001015  79.3832 280.7274 15.08829756127029,6917.912,95.438,540.479,539.075,0.0
51769.0,STARLINK-3621,PAYLOAD,2024-06-14 18:08:25,15.08837697,0.0001141,53.2173,300.4722,75.2132,284.8987,0.00016629,2.36e-05,0.0,0 STARLINK-3621,1 51769U 22017B   24166.75584971  .00002360  00000-0  16629-3 0  9993,2 51769  53.2173 300.4722 0001141  75.2132 284.8987 15.08837697127051,6917.887,95.438,540.542,538.963,0.0
51769.0,STARLINK-3621,PAYLOAD,2024-06-15 14:48:25,15.08845292,0.0001172,53.2169,296.6068,72.2519,287.8601,0.00016991,2.418e-05,0.0,0 STARLINK-3621,1 51769U 22017B   24167.61696631  .00002418  00000-0  16991-3 0  9992,2 51769  53.2169 296.6068 0001172  72.2519 287.8601 15.08845292127185,6917.864,95.437,540.54,538.918,0.0
51769.0,STARLINK-3621,PAYLOAD,2024-06-15 16:23:48,15.08847721,0.0001168,53.2169,296.3094,71.2694,288.8424,0.00021956,3.209e-05,0.0,0 STARLINK-3621,1 51769U 22017B   24167.68320548  .00003209  00000-0  21956-3 0  9996,2 51769  53.2169 296.3094 0001168  71.2694 288.8424 15.08847721127193,6917.857,95.437,540.53,538.914,0.0
51769.0,STARLINK-3621,PAYLOAD,2024-06-16 14:39:13,15.08838612,0.0001179,53.217,292.146,83.432,276.6806,9.3137e-05,1.195e-05,0.0,0 STARLINK-3621,1 51769U 22017B   24168.61056848  .00001195  00000-0  93137-4 0  9992,2 51769  53.2170 292.1460 0001179  83.4320 276.6806 15.08838612127333,6917.885,95.438,540.565,538.934,0.0
51769.0,STARLINK-3621,PAYLOAD,2024-06-16 17:49:59,15.08843137,0.0001335,53.2168,291.5507,87.2051,272.9094,0.00014646,2.044e-05,0.0,0 STARLINK-3621,1 51769U 22017B   24168.74304699  .00002044  00000-0  14646-3 0  9997,2 51769  53.2168 291.5507 0001335  87.2051 272.9094 15.08843137127350,6917.871,95.437,540.659,538.812,0.0
51769.0,STARLINK-3621,PAYLOAD,2024-06-17 17:40:46,15.08837949,0.0001625,53.2187,287.0917,95.7319,264.3859,4.5412e-05,4.35e-06,0.0,0 STARLINK-3621,1 51769U 22017B   24169.73665070  .00000435  00000-0  45412-4 0  9998,2 51769  53.2187 287.0917 0001625  95.7319 264.3859 15.08837949128954,6917.887,95.438,540.876,538.628,0.0
51769.0,STARLINK-3621,PAYLOAD,2024-06-18 14:20:47,15.08844238,0.0001329,53.2178,283.2241,96.1985,263.9159,0.00026389,3.915e-05,0.0,0 STARLINK-3621,1 51769U 22017B   24170.59776975  .00003915  00000-0  26389-3 0  9998,2 51769  53.2178 283.2241 0001329  96.1985 263.9159 15.08844238127638,6917.867,95.437,540.652,538.813,0.0
